[{"OBJECT_NAME":"NUSAT-35 (WILLIAMINA)","OBJECT_ID":"2023-001AR","EPOCH":"2026-03-09T22:28:40.425600","MEAN_MOTION":15.3245616,"ECCENTRICITY":0.00136635,"INCLINATION":97.1993,"RA_OF_ASC_NODE":124.278,"ARG_OF_PERICENTER":97.0313,"MEAN_ANOMALY":263.2484,"EPHEMERIS_TYPE":0,"CLASSIFICATION_TYPE":"U","NORAD_CAT_ID":55048,"ELEMENT_SET_NO":999,"REV_AT_EPOCH":17719,"BSTAR":0.00053479647,"MEAN_MOTION_DOT":0.0001675,"MEAN_MOTION_DDOT":0},{"OBJECT_NAME":"STARLINK-32697","OBJECT_ID":"2024-251E","EPOCH":"2026-03-09T23:32:13.064064","MEAN_MOTION":15.30192066,"ECCENTRICITY":0.00010773,"INCLINATION":53.1595,"RA_OF_ASC_NODE":333.9073,"ARG_OF_PERICENTER":112.6856,"MEAN_ANOMALY":247.4259,"EPHEMERIS_TYPE":0,"CLASSIFICATION_TYPE":"U","NORAD_CAT_ID":62436,"ELEMENT_SET_NO":999,"REV_AT_EPOCH":6799,"BSTAR":0.00045008429,"MEAN_MOTION_DOT":0.00012991,"MEAN_MOTION_DDOT":0}]
